{"type": "FeatureCollection", "features": [ {"type": "Feature", "properties": {"norad_id": 66485, "name": "STARLINK-34774", "group": "last-30-days", "lat": 19.506952804778017, "lon": -62.31787183738679, "alt_km": 430.0216567062371, "timestamp": "2025-12-10T04:57:28.365496+00:00", "meta": {"OBJECT_NAME": "STARLINK-34774", "OBJECT_ID": "2025-263A", "EPOCH": "2025-12-09T20:00:01.999008", "MEAN_MOTION": 15.46287676, "ECCENTRICITY": 0.0001029, "INCLINATION": 43.0003, "RA_OF_ASC_NODE": 142.1924, "ARG_OF_PERICENTER": 278.2624, "MEAN_ANOMALY": 313.3768, "EPHEMERIS_TYPE": 0, "CLASSIFICATION_TYPE": "U", "NORAD_CAT_ID": 66485, "ELEMENT_SET_NO": 999, "REV_AT_EPOCH": 516, "BSTAR": -0.044225, "MEAN_MOTION_DOT": -0.0199193, "MEAN_MOTION_DDOT": 0}, "tle": {"line1": "1 66485U 25263A   25343.83335647 -.01991930  00000+0 -44225-1 0  9994", "line2": "2 66485  43.0003 142.1924 0001029 278.2624 313.3768 15.46287676  5162"}}, "geometry": {"type": "Point", "coordinates": [-62.31787183738679, 19.506952804778017]}}, {"type": "Feature", "properties": {"norad_id": 66486, "name": "STARLINK-34844", "group": "last-30-days", "lat": 9.030721079435029, "lon": -49.83655983342077, "alt_km": 413.95434017087246, "timestamp": "2025-12-10T04:57:28.365507+00:00", "meta": {"OBJECT_NAME": "STARLINK-34844", "OBJECT_ID": "2025-263B", "EPOCH": "2025-12-09T20:00:01.999008", "MEAN_MOTION": 15.50558465, "ECCENTRICITY": 0.0001494, "INCLINATION": 43.0006, "RA_OF_ASC_NODE": 142.167, "ARG_OF_PERICENTER": 274.9047, "MEAN_ANOMALY": 325.8885, "EPHEMERIS_TYPE": 0, "CLASSIFICATION_TYPE": "U", "NORAD_CAT_ID": 66486, "ELEMENT_SET_NO": 999, "REV_AT_EPOCH": 512, "BSTAR": 0.00015036, "MEAN_MOTION_DOT": 8.482e-05, "MEAN_MOTION_DDOT": 0}, "tle": {"line1": "1 66486U 25263B   25343.83335647  .00008482  00000+0  15036-3 0  9993", "line2": "2 66486  43.0006 142.1670 0001494 274.9047 325.8885 15.50558465  5128"}}, "geometry": {"type": "Point", "coordinates": [-49.83655983342077, 9.030721079435029]}}, {"type": "Feature", "properties": {"norad_id": 66487, "name": "STARLINK-34733", "group": "last-30-days", "lat": 7.771466233667751, "lon": -48.44366226649708, "alt_km": 414.1572424935539, "timestamp": "2025-12-10T04:57:28.365517+00:00", "meta": {"OBJECT_NAME": "STARLINK-34733", "OBJECT_ID": "2025-263C", "EPOCH": "2025-12-09T14:00:01.999872", "MEAN_MOTION": 15.50577941, "ECCENTRICITY": 0.00013994, "INCLINATION": 43.0003, "RA_OF_ASC_NODE": 143.6239, "ARG_OF_PERICENTER": 264.9276, "MEAN_ANOMALY": 20.6121, "EPHEMERIS_TYPE": 0, "CLASSIFICATION_TYPE": "U", "NORAD_CAT_ID": 66487, "ELEMENT_SET_NO": 999, "REV_AT_EPOCH": 512, "BSTAR": -0.0011104276, "MEAN_MOTION_DOT": -0.00064944, "MEAN_MOTION_DDOT": 0}, "tle": {"line1": "1 66487U 25263C   25343.58335648 -.00064944  00000+0 -11104-2 0  9995", "line2": "2 66487  43.0003 143.6239 0001399 264.9276  20.6121 15.50577941  5123"}}, "geometry": {"type": "Point", "coordinates": [-48.44366226649708, 7.771466233667751]}}, {"type": "Feature", "properties": {"norad_id": 66488, "name": "STARLINK-35515", "group": "last-30-days", "lat": 6.440402296309676, "lon": -46.983103839633564, "alt_km": 414.298562175557, "timestamp": "2025-12-10T04:57:28.365528+00:00", "meta": {"OBJECT_NAME": "STARLINK-35515", "OBJECT_ID": "2025-263D", "EPOCH": "2025-12-09T20:00:01.999008", "MEAN_MOTION": 15.50573386, "ECCENTRICITY": 0.0001474, "INCLINATION": 43.0007, "RA_OF_ASC_NODE": 142.158, "ARG_OF_PERICENTER": 274.2882, "MEAN_ANOMALY": 330.3451, "EPHEMERIS_TYPE": 0, "CLASSIFICATION_TYPE": "U", "NORAD_CAT_ID": 66488, "ELEMENT_SET_NO": 999, "REV_AT_EPOCH": 516, "BSTAR": -0.00054431, "MEAN_MOTION_DOT": -0.00032136, "MEAN_MOTION_DDOT": 0}, "tle": {"line1": "1 66488U 25263D   25343.83335647 -.00032136  00000+0 -54431-3 0  9992", "line2": "2 66488  43.0007 142.1580 0001474 274.2882 330.3451 15.50573386  5162"}}, "geometry": {"type": "Point", "coordinates": [-46.983103839633564, 6.440402296309676]}}, {"type": "Feature", "properties": {"norad_id": 66489, "name": "STARLINK-35696", "group": "last-30-days", "lat": 5.139478067427721, "lon": -45.56929495588939, "alt_km": 414.4254798864249, "timestamp": "2025-12-10T04:57:28.365538+00:00", "meta": {"OBJECT_NAME": "STARLINK-35696", "OBJECT_ID": "2025-263E", "EPOCH": "2025-12-09T20:00:01.999008", "MEAN_MOTION": 15.50591345, "ECCENTRICITY": 0.0001553, "INCLINATION": 43.0008, "RA_OF_ASC_NODE": 142.1529, "ARG_OF_PERICENTER": 272.128, "MEAN_ANOMALY": 334.4133, "EPHEMERIS_TYPE": 0, "CLASSIFICATION_TYPE": "U", "NORAD_CAT_ID": 66489, "ELEMENT_SET_NO": 999, "REV_AT_EPOCH": 516, "BSTAR": -0.00094865, "MEAN_MOTION_DOT": -0.00055625, "MEAN_MOTION_DDOT": 0}, "tle": {"line1": "1 66489U 25263E   25343.83335647 -.00055625  00000+0 -94865-3 0  9996", "line2": "2 66489  43.0008 142.1529 0001553 272.1280 334.4133 15.50591345  5161"}}, "geometry": {"type": "Point", "coordinates": [-45.56929495588939, 5.139478067427721]}}, {"type": "Feature", "properties": {"norad_id": 66490, "name": "STARLINK-35693", "group": "last-30-days", "lat": 4.048720376406335, "lon": -44.39147354608598, "alt_km": 416.58791674995973, "timestamp": "2025-12-10T04:57:28.365551+00:00", "meta": {"OBJECT_NAME": "STARLINK-35693", "OBJECT_ID": "2025-263F", "EPOCH": "2025-12-09T20:00:01.999008", "MEAN_MOTION": 15.50993638, "ECCENTRICITY": 0.000128, "INCLINATION": 43.0006, "RA_OF_ASC_NODE": 142.1476, "ARG_OF_PERICENTER": 257.3281, "MEAN_ANOMALY": 351.0656, "EPHEMERIS_TYPE": 0, "CLASSIFICATION_TYPE": "U", "NORAD_CAT_ID": 66490, "ELEMENT_SET_NO": 999, "REV_AT_EPOCH": 516, "BSTAR": -0.027752, "MEAN_MOTION_DOT": -0.0149701, "MEAN_MOTION_DDOT": 0}, "tle": {"line1": "1 66490U 25263F   25343.83335647 -.01497010  00000+0 -27752-1 0  9996", "line2": "2 66490  43.0006 142.1476 0001280 257.3281 351.0656 15.50993638  5161"}}, "geometry": {"type": "Point", "coordinates": [-44.39147354608598, 4.048720376406335]}}, {"type": "Feature", "properties": {"norad_id": 66491, "name": "STARLINK-35663", "group": "last-30-days", "lat": 1.2273065654917363, "lon": -41.36275153524492, "alt_km": 414.8374051110477, "timestamp": "2025-12-10T04:57:28.365563+00:00", "meta": {"OBJECT_NAME": "STARLINK-35663", "OBJECT_ID": "2025-263G", "EPOCH": "2025-12-09T20:00:01.999008", "MEAN_MOTION": 15.50569277, "ECCENTRICITY": 0.0001568, "INCLINATION": 43.0007, "RA_OF_ASC_NODE": 142.1381, "ARG_OF_PERICENTER": 271.8203, "MEAN_ANOMALY": 340.4826, "EPHEMERIS_TYPE": 0, "CLASSIFICATION_TYPE": "U", "NORAD_CAT_ID": 66491, "ELEMENT_SET_NO": 999, "REV_AT_EPOCH": 516, "BSTAR": -0.00036399, "MEAN_MOTION_DOT": -0.00021629, "MEAN_MOTION_DDOT": 0}, "tle": {"line1": "1 66491U 25263G   25343.83335647 -.00021629  00000+0 -36399-3 0  9994", "line2": "2 66491  43.0007 142.1381 0001568 271.8203 340.4826 15.50569277  5161"}}, "geometry": {"type": "Point", "coordinates": [-41.36275153524492, 1.2273065654917363]}}, {"type": "Feature", "properties": {"norad_id": 66492, "name": "STARLINK-35673", "group": "last-30-days", "lat": 6.0100884615261325, "lon": -46.5156577523342, "alt_km": 428.2548151036917, "timestamp": "2025-12-10T04:57:28.365576+00:00", "meta": {"OBJECT_NAME": "STARLINK-35673", "OBJECT_ID": "2025-263H", "EPOCH": "2025-12-09T20:00:01.999008", "MEAN_MOTION": 15.47523272, "ECCENTRICITY": 0.0001395, "INCLINATION": 43.0008, "RA_OF_ASC_NODE": 142.1421, "ARG_OF_PERICENTER": 272.2847, "MEAN_ANOMALY": 338.213, "EPHEMERIS_TYPE": 0, "CLASSIFICATION_TYPE": "U", "NORAD_CAT_ID": 66492, "ELEMENT_SET_NO": 999, "REV_AT_EPOCH": 516, "BSTAR": -0.043703, "MEAN_MOTION_DOT": -0.02048643, "MEAN_MOTION_DDOT": 0}, "tle": {"line1": "1 66492U 25263H   25343.83335647 -.02048643  00000+0 -43703-1 0  9997", "line2": "2 66492  43.0008 142.1421 0001395 272.2847 338.2130 15.47523272  5169"}}, "geometry": {"type": "Point", "coordinates": [-46.5156577523342, 6.0100884615261325]}}, {"type": "Feature", "properties": {"norad_id": 66493, "name": "STARLINK-35597", "group": "last-30-days", "lat": -1.38635490371586, "lon": -38.56732870748058, "alt_km": 415.0206375029611, "timestamp": "2025-12-10T04:57:28.365587+00:00", "meta": {"OBJECT_NAME": "STARLINK-35597", "OBJECT_ID": "2025-263J", "EPOCH": "2025-12-09T20:00:01.999008", "MEAN_MOTION": 15.50556809, "ECCENTRICITY": 0.000153, "INCLINATION": 43.0005, "RA_OF_ASC_NODE": 142.128, "ARG_OF_PERICENTER": 269.5139, "MEAN_ANOMALY": 346.6213, "EPHEMERIS_TYPE": 0, "CLASSIFICATION_TYPE": "U", "NORAD_CAT_ID": 66493, "ELEMENT_SET_NO": 999, "REV_AT_EPOCH": 516, "BSTAR": 0.00024231, "MEAN_MOTION_DOT": 0.00013888, "MEAN_MOTION_DDOT": 0}, "tle": {"line1": "1 66493U 25263J   25343.83335647  .00013888  00000+0  24231-3 0  9994", "line2": "2 66493  43.0005 142.1280 0001530 269.5139 346.6213 15.50556809  5165"}}, "geometry": {"type": "Point", "coordinates": [-38.56732870748058, -1.38635490371586]}}, {"type": "Feature", "properties": {"norad_id": 66494, "name": "STARLINK-35689", "group": "last-30-days", "lat": 2.5272389844289873, "lon": -42.754850086074356, "alt_km": 414.6596445218747, "timestamp": "2025-12-10T04:57:28.365597+00:00", "meta": {"OBJECT_NAME": "STARLINK-35689", "OBJECT_ID": "2025-263K", "EPOCH": "2025-12-09T20:00:01.999008", "MEAN_MOTION": 15.50606533, "ECCENTRICITY": 0.0001502, "INCLINATION": 43.0006, "RA_OF_ASC_NODE": 142.1435, "ARG_OF_PERICENTER": 269.3098, "MEAN_ANOMALY": 341.0616, "EPHEMERIS_TYPE": 0, "CLASSIFICATION_TYPE": "U", "NORAD_CAT_ID": 66494, "ELEMENT_SET_NO": 999, "REV_AT_EPOCH": 516, "BSTAR": -0.0012811, "MEAN_MOTION_DOT": -0.00074857, "MEAN_MOTION_DDOT": 0}, "tle": {"line1": "1 66494U 25263K   25343.83335647 -.00074857  00000+0 -12811-2 0  9990", "line2": "2 66494  43.0006 142.1435 0001502 269.3098 341.0616 15.50606533  5166"}}, "geometry": {"type": "Point", "coordinates": [-42.754850086074356, 2.5272389844289873]}}]}